NORAD_CAT_ID,OBJECT_NAME,OBJECT_TYPE,EPOCH,MEAN_MOTION,ECCENTRICITY,INCLINATION,RA_OF_ASC_NODE,ARG_OF_PERICENTER,MEAN_ANOMALY,BSTAR,MEAN_MOTION_DOT,MEAN_MOTION_DDOT,TLE_LINE0,TLE_LINE1,TLE_LINE2,SEMIMAJOR_AXIS,PERIOD,APOGEE,PERIGEE,DECAYED
53828.0,STARLINK-4760,PAYLOAD,2023-01-12 02:50:42,15.08850644,0.000219,53.2172,78.1134,44.4359,315.6808,0.00020284,2.942e-05,0.0,0 STARLINK-4760,1 53828U 22114L   23012.11854570  .00002942  00000-0  20284-3 0  9991,2 53828  53.2172  78.1134 0002190  44.4359 315.6808 15.08850644 18295,6917.848000000001,95.437,541.2280000000002,538.198,0.0
53828.0,STARLINK-4760,PAYLOAD,2023-01-12 09:12:15,15.08830115,0.0002239,53.2182,76.9238,37.5318,322.583,-0.00025851,-4.399e-05,0.0,0 STARLINK-4760,1 53828U 22114L   23012.38351330 -.00004399  00000-0 -25851-3 0  9991,2 53828  53.2182  76.9238 0002239  37.5318 322.5830 15.08830115 18337,6917.911,95.438,541.325,538.227,0.0
53828.0,STARLINK-4760,PAYLOAD,2023-01-13 10:38:26,15.08831519,0.0001891,53.2184,72.1664,53.644,306.4727,2.0858000000000003e-05,4.4e-07,0.0,0 STARLINK-4760,1 53828U 22114L   23013.44336137  .00000044  00000-0  20858-4 0  9991,2 53828  53.2184  72.1664 0001891  53.6440 306.4727 15.08831519 18490,6917.906,95.438,541.0790000000001,538.4630000000001,0.0
53828.0,STARLINK-4760,PAYLOAD,2023-01-13 20:10:45,15.08829786,0.0002000999999999,53.2186,70.383,51.1729,308.9441,0.00023272,3.417e-05,0.0,0 STARLINK-4760,1 53828U 22114L   23013.84080752  .00003417  00000-0  23272-3 0  9993,2 53828  53.2186  70.3830 0002001  51.1729 308.9441 15.08829786 19094,6917.911999999999,95.438,541.161,538.3919999999999,0.0
53828.0,STARLINK-4760,PAYLOAD,2023-01-14 13:40:00,15.08854102,0.0001949,53.218,67.1104,49.7946,310.3217,0.00079424,0.0001238,0.0,0 STARLINK-4760,1 53828U 22114L   23014.56944508  .00012380  00000-0  79424-3 0  9990,2 53828  53.2180  67.1104 0001949  49.7946 310.3217 15.08854102 18660,6917.837,95.437,541.0509999999999,538.354,0.0
53828.0,STARLINK-4760,PAYLOAD,2023-01-14 20:01:33,15.08835403,0.0002399,53.2175,65.919,53.5624,306.5589,0.00020344,2.951e-05,0.0,0 STARLINK-4760,1 53828U 22114L   23014.83441262  .00002951  00000-0  20344-3 0  9999,2 53828  53.2175  65.9190 0002399  53.5624 306.5589 15.08835403 18708,6917.894,95.438,541.419,538.1,0.0
53828.0,STARLINK-4760,PAYLOAD,2023-01-15 10:20:01,15.08842577,0.0001969,53.2179,63.2459,64.11,296.0095,0.00030122,4.509e-05,0.0,0 STARLINK-4760,1 53828U 22114L   23015.43057253  .00004509  00000-0  30122-3 0  9995,2 53828  53.2179  63.2459 0001969  64.1100 296.0095 15.08842577 19335,6917.8730000000005,95.437,541.1,538.375,0.0
53828.0,STARLINK-4760,PAYLOAD,2023-01-15 19:52:20,15.08842851,0.0001831999999999,53.2183,61.4625,69.3735,290.7453,0.00032182,4.838e-05,0.0,0 STARLINK-4760,1 53828U 22114L   23015.82801288  .00004838  00000-0  32182-3 0  9996,2 53828  53.2183  61.4625 0001832  69.3735 290.7453 15.08842851 19395,6917.871999999999,95.437,541.004,538.469,0.0
53828.0,STARLINK-4760,PAYLOAD,2023-01-16 07:00:02,15.08855281,0.0001899999999999,53.2175,59.3806,72.4987,287.6212,0.00076479,0.0001190999999999,0.0,0 STARLINK-4760,1 53828U 22114L   23016.29169070  .00011910  00000-0  76479-3 0  9990,2 53828  53.2175  59.3806 0001900  72.4987 287.6212 15.08855281 18920,6917.834,95.437,541.013,538.384,0.0
53828.0,STARLINK-4760,PAYLOAD,2023-01-16 11:46:11,15.08871001,0.0001657,53.2181,58.4876,71.7933,288.324,0.0012189,0.0001918,0.0,0 STARLINK-4760,1 53828U 22114L   23016.49040574  .00019180  00000-0  12189-2 0  9993,2 53828  53.2181  58.4876 0001657  71.7933 288.3240 15.08871001 19496,6917.786,95.436,540.797,538.504,0.0
53828.0,STARLINK-4760,PAYLOAD,2023-01-16 19:43:06,15.08845461,0.0001335,53.2182,57.0012,87.4319,272.6826,0.00044851,6.858e-05,0.0,0 STARLINK-4760,1 53828U 22114L   23016.82160859  .00006858  00000-0  44851-3 0  9999,2 53828  53.2182  57.0012 0001335  87.4319 272.6826 15.08845461 19003,6917.8640000000005,95.437,540.6519999999999,538.805,0.0
53828.0,STARLINK-4760,PAYLOAD,2023-01-17 02:04:40,15.08825045,0.0001825,53.2176,55.8128,84.9432,275.1768,2.0617e-05,4e-07,0.0,0 STARLINK-4760,1 53828U 22114L   23017.08657532  .00000040  00000-0  20617-4 0  9999,2 53828  53.2176  55.8128 0001825  84.9432 275.1768 15.08825045 19045,6917.926,95.439,541.054,538.529,0.0
53828.0,STARLINK-4760,PAYLOAD,2023-01-18 08:17:00,15.088532,0.0001628,53.2178,50.1625,89.8801,270.2378,0.0013312,0.00020969,0.0,0 STARLINK-4760,1 53828U 22114L   23018.34514430  .00020969  00000-0  13312-2 0  9992,2 53828  53.2178  50.1625 0001628  89.8801 270.2378 15.08853200 19230,6917.84,95.437,540.831,538.5790000000001,0.0
53828.0,STARLINK-4760,PAYLOAD,2023-01-18 19:24:42,15.0886311,0.0001628,53.2172,48.0809,89.1903,270.9275,0.0011386,0.00017891,0.0,0 STARLINK-4760,1 53828U 22114L   23018.80882010  .00017891  00000-0  11386-2 0  9994,2 53828  53.2172  48.0809 0001628  89.1903 270.9275 15.08863110 19841,6917.81,95.436,540.8009999999999,538.549,0.0
53828.0,STARLINK-4760,PAYLOAD,2023-01-19 01:46:14,15.08864935,0.0001737,53.2178,46.8924,89.1586,270.9605,0.00092855,0.00014531,0.0,0 STARLINK-4760,1 53828U 22114L   23019.07377751  .00014531  00000-0  92855-3 0  9994,2 53828  53.2178  46.8924 0001737  89.1586 270.9605 15.08864935 19347,6917.804,95.436,540.871,538.4680000000001,0.0
53828.0,STARLINK-4760,PAYLOAD,2023-01-19 11:18:32,15.08874436,0.0001653,53.2176,45.1064,96.0019,264.1162,0.00089638,0.0001402,0.0,0 STARLINK-4760,1 53828U 22114L   23019.47120917  .00014020  00000-0  89638-3 0  9996,2 53828  53.2176  45.1064 0001653  96.0019 264.1162 15.08874436 19943,6917.775,95.435,540.784,538.497,0.0
53828.0,STARLINK-4760,PAYLOAD,2023-01-20 01:37:01,15.08839363,0.0001249,53.2184,42.4312,99.8007,260.3126,-0.00014075,-2.527e-05,0.0,0 STARLINK-4760,1 53828U 22114L   23020.06737384 -.00002527  00000-0 -14075-3 0  9999,2 53828  53.2184  42.4312 0001249  99.8007 260.3126 15.08839363 19495,6917.882,95.438,540.611,538.883,0.0
53828.0,STARLINK-4760,PAYLOAD,2023-01-20 11:09:20,15.08842385,0.0001488,53.2181,40.646,105.1918,254.9239,0.00012332,1.675e-05,0.0,0 STARLINK-4760,1 53828U 22114L   23020.46481536  .00001675  00000-0  12332-3 0  9993,2 53828  53.2181  40.6460 0001488 105.1918 254.9239 15.08842385 20093,6917.8730000000005,95.437,540.7669999999999,538.7090000000001,0.0
53828.0,STARLINK-4760,PAYLOAD,2023-01-21 07:49:19,15.08885027,0.0001631999999999,53.2207,36.7817,109.7694,250.3474,0.0015459,0.00024431,0.0,0 STARLINK-4760,1 53828U 22114L   23021.32592217  .00024431  00000-0  15459-2 0  9995,2 53828  53.2207  36.7817 0001632 109.7694 250.3474 15.08885027 19680,6917.743,95.435,540.737,538.479,0.0
53828.0,STARLINK-4760,PAYLOAD,2023-01-22 04:29:20,15.08846251,0.0001743,53.2204,32.915,128.9894,231.1254,0.0014862999999999,0.0002345,0.0,0 STARLINK-4760,1 53828U 22114L   23022.18704849  .00023450  00000-0  14863-2 0  9994,2 53828  53.2204  32.9150 0001743 128.9894 231.1254 15.08846251 19817,6917.861,95.437,540.932,538.52,0.0
53828.0,STARLINK-4760,PAYLOAD,2023-01-22 10:50:53,15.08836016,0.0001085,53.22,31.7252,84.6126,275.499,0.0015629,0.0002467,0.0,0 STARLINK-4760,1 53828U 22114L   23022.45201259  .00024670  00000-0  15629-2 0  9997,2 53828  53.2200  31.7252 0001085  84.6126 275.4990 15.08836016 19858,6917.893,95.438,540.508,539.007,0.0
53828.0,STARLINK-4760,PAYLOAD,2023-01-22 17:12:26,15.08834281,0.0001164,53.2204,30.5369,92.7192,267.3934,0.0010871,0.00017053,0.0,0 STARLINK-4760,1 53828U 22114L   23022.71697529  .00017053  00000-0  10871-2 0  9996,2 53828  53.2204  30.5369 0001164  92.7192 267.3934 15.08834281 19893,6917.898,95.438,540.568,538.9580000000001,0.0
53828.0,STARLINK-4760,PAYLOAD,2023-01-23 07:30:55,15.08824315,0.0001801,53.2205,27.8629,106.831,253.288,0.0012513,0.00019674,0.0,0 STARLINK-4760,1 53828U 22114L   23023.31314510  .00019674  00000-0  12513-2 0  9995,2 53828  53.2205  27.8629 0001801 106.8310 253.2880 15.08824315 19980,6917.928000000001,95.439,541.039,538.547,0.0
53828.0,STARLINK-4760,PAYLOAD,2023-01-24 05:46:20,15.08833209,0.000153,53.2195,23.6998,89.7088,270.4079,0.00029429,4.398e-05,0.0,0 STARLINK-4760,1 53828U 22114L   23024.24051020  .00004398  00000-0  29429-3 0  9994,2 53828  53.2195  23.6998 0001530  89.7088 270.4079 15.08833209 20122,6917.901,95.438,540.825,538.7080000000001,0.0
53828.0,STARLINK-4760,PAYLOAD,2023-01-25 07:12:30,15.08848674,0.0001305,53.2184,18.939,94.8337,265.2804,0.00046283,7.087e-05,0.0,0 STARLINK-4760,1 53828U 22114L   23025.30034805  .00007087  00000-0  46283-3 0  9999,2 53828  53.2184  18.9390 0001305  94.8337 265.2804 15.08848674 20284,6917.854,95.437,540.622,538.816,0.0
53828.0,STARLINK-4760,PAYLOAD,2023-01-25 16:44:48,15.08840933,0.0001239,53.2211,17.1539,90.9397,269.1737,0.0002000999999999,2.898e-05,0.0,0 STARLINK-4760,1 53828U 22114L   23025.69778832  .00002898  00000-0  20010-3 0  9991,2 53828  53.2211  17.1539 0001239  90.9397 269.1737 15.08840933 20345,6917.878000000001,95.437,540.6,538.885,0.0
53828.0,STARLINK-4760,PAYLOAD,2023-01-26 08:38:40,15.08849663,0.0001335,53.22,14.1817,79.8726,280.2416,0.00056169,8.665e-05,0.0,0 STARLINK-4760,1 53828U 22114L   23026.36018970  .00008665  00000-0  56169-3 0  9998,2 53828  53.2200  14.1817 0001335  79.8726 280.2416 15.08849663 20985,6917.851,95.437,540.639,538.7919999999999,0.0
53828.0,STARLINK-4760,PAYLOAD,2023-01-27 05:18:41,15.08852336,0.0001447,53.2199,10.3145,90.3266,269.7892,0.0004918,7.55e-05,0.0,0 STARLINK-4760,1 53828U 22114L   23027.22130929  .00007550  00000-0  49180-3 0  9990,2 53828  53.2199  10.3145 0001447  90.3266 269.7892 15.08852336 20571,6917.843000000001,95.437,540.7090000000001,538.707,0.0
53828.0,STARLINK-4760,PAYLOAD,2023-01-27 08:29:27,15.08856509,0.000144,53.22,9.7196,90.3977,269.718,0.00057652,8.903e-05,0.0,0 STARLINK-4760,1 53828U 22114L   23027.35378779  .00008903  00000-0  57652-3 0  9997,2 53828  53.2200   9.7196 0001440  90.3977 269.7180 15.08856509 21133,6917.83,95.437,540.691,538.6990000000001,0.0
